[{"OBJECT_NAME":"STARLINK-35357","OBJECT_ID":"2025-218J","EPOCH":"2026-03-09T14:12:43.361856","MEAN_MOTION":15.05647342,"ECCENTRICITY":0.0001957,"INCLINATION":97.6023,"RA_OF_ASC_NODE":292.8374,"ARG_OF_PERICENTER":101.6178,"MEAN_ANOMALY":258.5268,"EPHEMERIS_TYPE":0,"CLASSIFICATION_TYPE":"U","NORAD_CAT_ID":65799,"ELEMENT_SET_NO":999,"REV_AT_EPOCH":2495,"BSTAR":0.00024481,"MEAN_MOTION_DOT":3.473e-5,"MEAN_MOTION_DDOT":0},{"OBJECT_NAME":"CZ-6A R\/B","OBJECT_ID":"2024-126D","EPOCH":"2026-03-09T19:23:06.789408","MEAN_MOTION":15.13279149,"ECCENTRICITY":0.00704729,"INCLINATION":97.7886,"RA_OF_ASC_NODE":97.6113,"ARG_OF_PERICENTER":100.2752,"MEAN_ANOMALY":260.6434,"EPHEMERIS_TYPE":0,"CLASSIFICATION_TYPE":"U","NORAD_CAT_ID":60214,"ELEMENT_SET_NO":999,"REV_AT_EPOCH":9240,"BSTAR":0.00030839807,"MEAN_MOTION_DOT":5.76e-5,"MEAN_MOTION_DDOT":0}]
